{"fetched_at":"2026-07-17T17:38:19.080Z","source":"https://celestrak.org/NORAD/elements/gp.php?NAME=HULIANWANG&FORMAT=JSON","constellation":"guowang","records":[{"OBJECT_NAME":"HULIANWANG JISHU SHIYAN A","OBJECT_ID":"2023-095A","EPOCH":"2026-07-17T08:36:55.624896","CLASSIFICATION_TYPE":"U","MEAN_MOTION":13.39544411,"ECCENTRICITY":0.00195196,"INCLINATION":86.5045,"RA_OF_ASC_NODE":354.3295,"ARG_OF_PERICENTER":105.7529,"MEAN_ANOMALY":254.5768,"EPHEMERIS_TYPE":0,"NORAD_CAT_ID":57288,"ELEMENT_SET_NO":999,"REV_AT_EPOCH":14779,"BSTAR":0.00001482745,"MEAN_MOTION_DOT":2.3e-7,"MEAN_MOTION_DDOT":0},{"OBJECT_NAME":"HULIANWANG JISHU SHIYAN B","OBJECT_ID":"2023-095B","EPOCH":"2026-07-17T08:24:39.634272","CLASSIFICATION_TYPE":"U","MEAN_MOTION":13.39553055,"ECCENTRICITY":0.00181086,"INCLINATION":86.5047,"RA_OF_ASC_NODE":354.3419,"ARG_OF_PERICENTER":103.8607,"MEAN_ANOMALY":256.4552,"EPHEMERIS_TYPE":0,"NORAD_CAT_ID":57289,"ELEMENT_SET_NO":999,"REV_AT_EPOCH":14779,"BSTAR":0.000016841316,"MEAN_MOTION_DOT":2.5e-7,"MEAN_MOTION_DDOT":0},{"OBJECT_NAME":"HULIANWANG JISHU SHIYAN 4A","OBJECT_ID":"2023-212A","EPOCH":"2026-07-17T05:59:49.305408","CLASSIFICATION_TYPE":"U","MEAN_MOTION":13.41459146,"ECCENTRICITY":0.00012401,"INCLINATION":49.9987,"RA_OF_ASC_NODE":233.6019,"ARG_OF_PERICENTER":226.4584,"MEAN_ANOMALY":133.6191,"EPHEMERIS_TYPE":0,"NORAD_CAT_ID":58691,"ELEMENT_SET_NO":999,"REV_AT_EPOCH":12528,"BSTAR":0.000046988852,"MEAN_MOTION_DOT":-0.00000102,"MEAN_MOTION_DDOT":0},{"OBJECT_NAME":"HULIANWANG JISHU SHIYAN 4B","OBJECT_ID":"2023-212B","EPOCH":"2026-07-17T05:50:09.303936","CLASSIFICATION_TYPE":"U","MEAN_MOTION":13.41460266,"ECCENTRICITY":0.00013901,"INCLINATION":49.9956,"RA_OF_ASC_NODE":233.9836,"ARG_OF_PERICENTER":216.19,"MEAN_ANOMALY":143.8883,"EPHEMERIS_TYPE":0,"NORAD_CAT_ID":58692,"ELEMENT_SET_NO":999,"REV_AT_EPOCH":12528,"BSTAR":0.000039098422,"MEAN_MOTION_DOT":-0.00000106,"MEAN_MOTION_DDOT":0},{"OBJECT_NAME":"HULIANWANG JISHU SHIYAN 4C","OBJECT_ID":"2023-212C","EPOCH":"2026-07-17T05:54:49.487904","CLASSIFICATION_TYPE":"U","MEAN_MOTION":13.4146212,"ECCENTRICITY":0.00012355,"INCLINATION":49.997,"RA_OF_ASC_NODE":234.0989,"ARG_OF_PERICENTER":205.5107,"MEAN_ANOMALY":154.571,"EPHEMERIS_TYPE":0,"NORAD_CAT_ID":58693,"ELEMENT_SET_NO":999,"REV_AT_EPOCH":12529,"BSTAR":0.000049046922,"MEAN_MOTION_DOT":-0.00000101,"MEAN_MOTION_DDOT":0},{"OBJECT_NAME":"HULIANWANG DIGUI-01","OBJECT_ID":"2024-240A","EPOCH":"2026-07-17T07:02:09.151008","CLASSIFICATION_TYPE":"U","MEAN_MOTION":13.2441158,"ECCENTRICITY":0.00019847,"INCLINATION":86.5022,"RA_OF_ASC_NODE":333.0813,"ARG_OF_PERICENTER":104.9116,"MEAN_ANOMALY":255.2238,"EPHEMERIS_TYPE":0,"NORAD_CAT_ID":62323,"ELEMENT_SET_NO":999,"REV_AT_EPOCH":7662,"BSTAR":-0.000013050807,"MEAN_MOTION_DOT":9e-8,"MEAN_MOTION_DDOT":0},{"OBJECT_NAME":"HULIANWANG DIGUI-02","OBJECT_ID":"2024-240B","EPOCH":"2026-07-17T07:12:53.758080","CLASSIFICATION_TYPE":"U","MEAN_MOTION":13.24411486,"ECCENTRICITY":0.00019533,"INCLINATION":86.505,"RA_OF_ASC_NODE":333.2464,"ARG_OF_PERICENTER":105.4218,"MEAN_ANOMALY":254.7132,"EPHEMERIS_TYPE":0,"NORAD_CAT_ID":62324,"ELEMENT_SET_NO":999,"REV_AT_EPOCH":7663,"BSTAR":-0.000001382073,"MEAN_MOTION_DOT":1.4e-7,"MEAN_MOTION_DDOT":0},{"OBJECT_NAME":"HULIANWANG DIGUI-03","OBJECT_ID":"2024-240C","EPOCH":"2026-07-17T06:51:14.885280","CLASSIFICATION_TYPE":"U","MEAN_MOTION":13.24410167,"ECCENTRICITY":0.00020177,"INCLINATION":86.5004,"RA_OF_ASC_NODE":332.9809,"ARG_OF_PERICENTER":103.3057,"MEAN_ANOMALY":256.8302,"EPHEMERIS_TYPE":0,"NORAD_CAT_ID":62325,"ELEMENT_SET_NO":999,"REV_AT_EPOCH":7662,"BSTAR":-0.000025778801,"MEAN_MOTION_DOT":4e-8,"MEAN_MOTION_DDOT":0},{"OBJECT_NAME":"HULIANWANG DIGUI-04","OBJECT_ID":"2024-240D","EPOCH":"2026-07-17T06:40:23.631456","CLASSIFICATION_TYPE":"U","MEAN_MOTION":13.24410466,"ECCENTRICITY":0.00021472,"INCLINATION":86.5014,"RA_OF_ASC_NODE":333.027,"ARG_OF_PERICENTER":103.0273,"MEAN_ANOMALY":257.1101,"EPHEMERIS_TYPE":0,"NORAD_CAT_ID":62326,"ELEMENT_SET_NO":999,"REV_AT_EPOCH":7662,"BSTAR":-0.000009494032,"MEAN_MOTION_DOT":1.1e-7,"MEAN_MOTION_DDOT":0},{"OBJECT_NAME":"HULIANWANG DIGUI-05","OBJECT_ID":"2024-240E","EPOCH":"2026-07-17T06:29:31.003008","CLASSIFICATION_TYPE":"U","MEAN_MOTION":13.24411107,"ECCENTRICITY":0.00021846,"INCLINATION":86.5066,"RA_OF_ASC_NODE":333.3164,"ARG_OF_PERICENTER":100.8118,"MEAN_ANOMALY":259.3262,"EPHEMERIS_TYPE":0,"NORAD_CAT_ID":62327,"ELEMENT_SET_NO":999,"REV_AT_EPOCH":7662,"BSTAR":0.000002673478,"MEAN_MOTION_DOT":1.6e-7,"MEAN_MOTION_DDOT":0},{"OBJECT_NAME":"HULIANWANG DIGUI-06","OBJECT_ID":"2024-240F","EPOCH":"2026-07-17T07:56:33.267840","CLASSIFICATION_TYPE":"U","MEAN_MOTION":13.24408578,"ECCENTRICITY":0.00021342,"INCLINATION":86.5003,"RA_OF_ASC_NODE":332.9345,"ARG_OF_PERICENTER":107.2237,"MEAN_ANOMALY":252.9131,"EPHEMERIS_TYPE":0,"NORAD_CAT_ID":62328,"ELEMENT_SET_NO":999,"REV_AT_EPOCH":7663,"BSTAR":0.000054148302,"MEAN_MOTION_DOT":3.8e-7,"MEAN_MOTION_DDOT":0},{"OBJECT_NAME":"HULIANWANG DIGUI-07","OBJECT_ID":"2024-240G","EPOCH":"2026-07-17T05:56:51.600480","CLASSIFICATION_TYPE":"U","MEAN_MOTION":13.24411029,"ECCENTRICITY":0.00020406,"INCLINATION":86.4974,"RA_OF_ASC_NODE":332.7925,"ARG_OF_PERICENTER":105.1683,"MEAN_ANOMALY":254.9677,"EPHEMERIS_TYPE":0,"NORAD_CAT_ID":62329,"ELEMENT_SET_NO":999,"REV_AT_EPOCH":7662,"BSTAR":0.000072230155,"MEAN_MOTION_DOT":4.6e-7,"MEAN_MOTION_DDOT":0},{"OBJECT_NAME":"HULIANWANG DIGUI-08","OBJECT_ID":"2024-240H","EPOCH":"2026-07-17T08:07:25.413312","CLASSIFICATION_TYPE":"U","MEAN_MOTION":13.24411392,"ECCENTRICITY":0.00022519,"INCLINATION":86.5058,"RA_OF_ASC_NODE":333.24,"ARG_OF_PERICENTER":100.5855,"MEAN_ANOMALY":259.5533,"EPHEMERIS_TYPE":0,"NORAD_CAT_ID":62330,"ELEMENT_SET_NO":999,"REV_AT_EPOCH":7663,"BSTAR":0.000043893048,"MEAN_MOTION_DOT":3.3e-7,"MEAN_MOTION_DDOT":0},{"OBJECT_NAME":"HULIANWANG DIGUI-09","OBJECT_ID":"2024-240J","EPOCH":"2026-07-17T07:34:46.619040","CLASSIFICATION_TYPE":"U","MEAN_MOTION":13.24409971,"ECCENTRICITY":0.00020025,"INCLINATION":86.5023,"RA_OF_ASC_NODE":333.0987,"ARG_OF_PERICENTER":103.5811,"MEAN_ANOMALY":256.5546,"EPHEMERIS_TYPE":0,"NORAD_CAT_ID":62331,"ELEMENT_SET_NO":999,"REV_AT_EPOCH":7662,"BSTAR":0.000058426352,"MEAN_MOTION_DOT":4e-7,"MEAN_MOTION_DDOT":0},{"OBJECT_NAME":"HULIANWANG DIGUI-10","OBJECT_ID":"2024-240K","EPOCH":"2026-07-17T07:23:54.153888","CLASSIFICATION_TYPE":"U","MEAN_MOTION":13.24410784,"ECCENTRICITY":0.0002088,"INCLINATION":86.5053,"RA_OF_ASC_NODE":333.263,"ARG_OF_PERICENTER":106.0545,"MEAN_ANOMALY":254.0819,"EPHEMERIS_TYPE":0,"NORAD_CAT_ID":62332,"ELEMENT_SET_NO":999,"REV_AT_EPOCH":7662,"BSTAR":0.000035088654,"MEAN_MOTION_DOT":3e-7,"MEAN_MOTION_DDOT":0},{"OBJECT_NAME":"HULIANWANG DIGUI-11","OBJECT_ID":"2025-030A","EPOCH":"2026-07-17T05:34:06.724992","CLASSIFICATION_TYPE":"U","MEAN_MOTION":13.29324545,"ECCENTRICITY":0.00009665,"INCLINATION":50.0001,"RA_OF_ASC_NODE":128.058,"ARG_OF_PERICENTER":279.8275,"MEAN_ANOMALY":80.2488,"EPHEMERIS_TYPE":0,"NORAD_CAT_ID":62971,"ELEMENT_SET_NO":999,"REV_AT_EPOCH":6985,"BSTAR":0.000059105378,"MEAN_MOTION_DOT":-9.7e-7,"MEAN_MOTION_DDOT":0}]}
