HULIANWANG JISHU SHIYAN*
1 57288U 23095A   26198.35897714  .00000023  00000+0  14827-4 0  9999
2 57288  86.5045 354.3295 0019519 105.7529 254.5768 13.39544411147795
HULIANWANG JISHU SHIYAN*
1 57289U 23095B   26198.35045873  .00000025  00000+0  16841-4 0  9991
2 57289  86.5047 354.3419 0018108 103.8607 256.4552 13.39553055147791
HULIANWANG JISHU SHIYAN*
1 58691U 23212A   26198.24987622 -.00000102  00000+0  46989-4 0  9998
2 58691  49.9987 233.6019 0001240 226.4584 133.6191 13.41459146125289
HULIANWANG JISHU SHIYAN*
1 58692U 23212B   26198.24316324 -.00000106  00000+0  39098-4 0  9991
2 58692  49.9956 233.9836 0001390 216.1900 143.8883 13.41460266125286
HULIANWANG JISHU SHIYAN*
1 58693U 23212C   26198.24640611 -.00000101  00000+0  49047-4 0  9991
2 58693  49.9970 234.0989 0001235 205.5107 154.5710 13.41462120125293
HULIANWANG DIGUI-01     
1 62323U 24240A   26198.29316147  .00000009  00000+0 -13051-4 0  9990
2 62323  86.5022 333.0813 0001984 104.9116 255.2238 13.24411580 76623
HULIANWANG DIGUI-02     
1 62324U 24240B   26198.30062220  .00000014  00000+0 -13821-5 0  9995
2 62324  86.5050 333.2464 0001953 105.4218 254.7132 13.24411486 76637
HULIANWANG DIGUI-03     
1 62325U 24240C   26198.28558895  .00000004  00000+0 -25779-4 0  9994
2 62325  86.5004 332.9809 0002017 103.3057 256.8302 13.24410167 76622
HULIANWANG DIGUI-04     
1 62326U 24240D   26198.27805129  .00000011  00000+0 -94940-5 0  9994
2 62326  86.5014 333.0270 0002147 103.0273 257.1101 13.24410466 76622
HULIANWANG DIGUI-05     
1 62327U 24240E   26198.27049772  .00000016  00000+0  26735-5 0  9990
2 62327  86.5066 333.3164 0002184 100.8118 259.3262 13.24411107 76624
HULIANWANG DIGUI-06     
1 62328U 24240F   26198.33094060  .00000038  00000+0  54148-4 0  9990
2 62328  86.5003 332.9345 0002134 107.2237 252.9131 13.24408578 76633
HULIANWANG DIGUI-07     
1 62329U 24240G   26198.24781945  .00000046  00000+0  72230-4 0  9997
2 62329  86.4974 332.7925 0002040 105.1683 254.9677 13.24411029 76621
HULIANWANG DIGUI-08     
1 62330U 24240H   26198.33848858  .00000033  00000+0  43893-4 0  9995
2 62330  86.5058 333.2400 0002251 100.5855 259.5533 13.24411392 76631
HULIANWANG DIGUI-09     
1 62331U 24240J   26198.31581735  .00000040  00000+0  58426-4 0  9998
2 62331  86.5023 333.0987 0002002 103.5811 256.5546 13.24409971 76621
HULIANWANG DIGUI-10     
1 62332U 24240K   26198.30826567  .00000030  00000+0  35089-4 0  9992
2 62332  86.5053 333.2630 0002088 106.0545 254.0819 13.24410784 76628
HULIANWANG DIGUI-11     
1 62971U 25030A   26198.23202228 -.00000097  00000+0  59105-4 0  9992
2 62971  50.0001 128.0580 0000966 279.8275  80.2488 13.29324545 69854
